OPTICUBE 04             
1 41851U 16067D   19104.23357456 -.00000053  00000-0  70702-6 0  9990
2 41851  97.9132 201.0707 0007437 238.4344 121.6151 14.96786036132124
AEROCUBE 8D             
1 41852U 16067E   19104.23202917  .00000175  00000-0  20671-4 0  9994
2 41852  97.9145 200.8947 0008223 238.4830 121.5588 14.96679132132105
AEROCUBE 8C             
1 41853U 16067F   19104.18651394  .00000015  00000-0  66391-5 0  9999
2 41853  97.9134 200.7902 0008969 241.0228 119.0094 14.96637419132096
PROMETHEUS 2-1          
1 41854U 16067G   19104.22975195  .00000520  00000-0  50702-4 0  9992
2 41854  97.9152 200.9399 0008862 238.9944 121.0407 14.96839050132109
PROMETHEUS 2-3          
1 41855U 16067H   19104.23229884  .00000390  00000-0  39309-4 0  9996
2 41855  97.9154 200.9557 0009046 239.8711 120.1614 14.96843625132108
INS-1B                  
1 41954U 17008G   19103.76507375  .00001804  00000-0  77884-4 0  9994
2 41954  97.4057 169.6572 0009812  27.8405 332.3356 15.23773227119767
BGUSAT                  
1 41999U 17008BD  19103.84041173  .00003050  00000-0  12198-3 0  9992
2 41999  97.4120 171.8273 0009086  42.9030 317.2915 15.25827981119251
DIDO-2                  
1 42000U 17008BE  19103.95009065  .00001273  00000-0  55824-4 0  9991
2 42000  97.4072 170.3773 0009627  44.4818 315.7190 15.23772152119190
PEASSS                  
1 42015U 17008BV  19103.75778055  .00001682  00000-0  70891-4 0  9992
2 42015  97.4077 171.0428 0007662  52.4880 307.7053 15.24702965119703
AL-FARABI 1             
1 42016U 17008BW  19103.91427436  .00002070  00000-0  85048-4 0  9997
2 42016  97.4088 171.6644 0007456  52.3357 307.8557 15.25294747119874
NAYIF-1 (EO-88)         
1 42017U 17008BX  19103.90317569  .00002078  00000-0  85287-4 0  9995
2 42017  97.4085 171.6628 0007441  52.6878 307.5037 15.25325411119894
PHOENIX                 
1 42706U 98067LP  19103.86829505  .00261069  39356-4  52183-3 0  9992
2 42706  51.6209 242.4673 0007788 311.1984  48.8353 15.99255660109390
ALTAIR PATHFINDER       
1 42711U 98067LS  19104.07220522  .00043182  00000-0  27135-3 0  9999
2 42711  51.6348 269.0250 0003589 249.9718 110.0895 15.76273813108728
SHARC                   
1 42712U 98067LT  19103.88084675  .00341533  60092-4  66723-3 0  9993
2 42712  51.6250 259.3425 0008560 298.5052  61.5096 15.99593731109073
ZA-AEROSAT              
1 42713U 98067LU  19103.86203939  .00148911  19549-4  42273-3 0  9998
2 42713  51.6281 249.3427 0005629 294.2782  65.7636 15.93048244108966
CSUNSAT1                
1 42715U 98067LW  19103.62337416  .00320890  55425-4  56276-3 0  9991
2 42715  51.6232 245.3902 0008182 303.7058  56.3172 16.01476808108992
NJUST-1                 
1 42722U 98067MB  19103.97997775  .00106571  00000-0  40990-3 0  9996
2 42722  51.6356 255.3236 0005072 295.5791 162.8687 15.86516952107962
NSIGHT                  
1 42726U 98067MF  19103.96273340  .00026633  00000-0  23236-3 0  9998
2 42726  51.6366 284.2981 0004946 277.5924  82.4511 15.68766646107490
SNUSAT-1B               
1 42727U 98067MG  19089.91797841  .06519165  12339-4  59073-3 0  9997
2 42727  51.6087 308.8243 0009316 268.9251  91.0707 16.37980460105869
BEEAGLESAT              
1 42736U 98067MR  19103.82245763  .00444173  10503-3  56274-3 0  9995
2 42736  51.6226 242.0991 0010559 315.2335  44.7825 16.06744659107944
UCLSAT                  
1 42765U 17036A   19103.88619376  .00001747  00000-0  78051-4 0  9997
2 42765  97.3582 163.2828 0013325 100.5628 259.7110 15.22578339101042
LITUANICASAT-2          
1 42768U 17036D   19104.12783715  .00002862  00000-0  12600-3 0  9993
2 42768  97.3615 163.0917 0017048  91.6285 268.6905 15.22524323100330
AALTO-1                 
1 42775U 17036L   19104.14943903  .00001135  00000-0  53760-4 0  9995
2 42775  97.3570 162.4374 0015789  90.7157 269.5888 15.21225366100240
URSA MAIOR              
1 42776U 17036M   19103.85260926  .00001238  00000-0  58180-4 0  9995
2 42776  97.3578 162.2739 0015630  91.6661 268.6365 15.21348457100200
COMPASS 2               
1 42777U 17036N   19104.15133238  .00002286  00000-0  10093-3 0  9999
2 42777  97.3613 163.5644 0014423  92.6128 267.6760 15.22671835100295
DIAMOND RED             
1 42783U 17036U   19103.90845840  .00001425  00000-0  65206-4 0  9998
2 42783  97.3584 162.9587 0013983 101.0786 259.2024 15.22058630100240
PEGASUS                 
1 42784U 17036V   19103.70262512  .00001658  00000-0  74747-4 0  9994
2 42784  97.3588 162.9452 0013857 101.3471 258.9323 15.22333868100225
DIAMOND GREEN           
1 42785U 17036W   19103.90728403  .00001426  00000-0  65212-4 0  9993
2 42785  97.3586 162.9795 0013884 101.5814 258.6982 15.22057986100319
DIAMOND BLUE            
1 42786U 17036X   19103.84054860  .00001420  00000-0  64979-4 0  9999
2 42786  97.3586 162.9133 0013713 101.9949 258.2825 15.22057199100307
NUDTSAT                 
1 42787U 17036Y   19103.93757826  .00002666  00000-0  11533-3 0  9992
2 42787  97.3603 163.7485 0013606  99.2582 261.0196 15.23220961100134
SUCHAI                  
1 42788U 17036Z   19103.85849388  .00001915  00000-0  84947-4 0  9995
2 42788  97.3591 163.3533 0013485 100.5108 259.7649 15.22720509100337
SKCUBE                  
1 42789U 17036AA  19103.87020939  .00001782  00000-0  79423-4 0  9996
2 42789  97.3587 163.3203 0013333 100.4782 259.7958 15.22632903100250
VZLUSAT-1               
1 42790U 17036AB  19103.92448274  .00002347  00000-0  10190-3 0  9993
2 42790  97.3600 163.7385 0012932  99.9860 260.2837 15.23225235100289
ROBUSTA-1B              
1 42792U 17036AD  19103.74242230  .00001810  00000-0  80278-4 0  9998
2 42792  97.3587 163.3258 0012920 101.4717 258.7971 15.22795757100255
CICERO 6                
1 42793U 17036AE  19104.11473043  .00001260  00000-0  57386-4 0  9992
2 42793  97.3572 163.5281 0012079 101.2866 258.9729 15.22447833100371
D-SAT                   
1 42794U 17036AF  19104.10960209  .00000262  00000-0  28212-4 0  9994
2 42794  97.5479 151.6672 0126601   0.9934 359.1513 14.91058735 98566
TOKI                    
1 42820U 98067MU  19103.83229147  .00309711  52936-4  51291-3 0  9997
2 42820  51.6241 247.5021 0008254 305.4546  54.5694 16.02454012101330
MAZAALAI (NUMSAT-1)     
1 42822U 98067MW  19103.83433024  .00236544  34005-4  49595-3 0  9994
2 42822  51.6260 249.8431 0007359 301.0896  58.9390 15.98440779101282
BRAC ONNESHA            
1 42823U 98067MX  19103.81612800  .00275625  43198-4  51212-3 0  9999
2 42823  51.6229 248.9291 0008428 300.3237  59.6938 16.00507526101296
NIGERIAEDUSAT-1         
1 42824U 98067MY  19103.82970346  .00213441  29544-4  46785-3 0  9999
2 42824  51.6265 250.6337 0007931 298.1601  61.8606 15.97665815101260
CORVUS BC2              
1 42846U 17042X   19103.68462216  .00000063  00000-0  11496-4 0  9991
2 42846  97.5730   0.2912 0008076 276.9803  83.0497 14.91945908 95170
CORVUS BC1              
1 42847U 17042Y   19103.91053876  .00000269  00000-0  31770-4 0  9991
2 42847  97.5732   0.6039 0007690 275.4227  84.6115 14.92045636 95200
SILU-1 (SILKROAD 1)     
1 42903U 17021F   19100.23204088  .02436429  89480-5  50117-3 0  9998
2 42903  42.7609 296.2424 0011156 293.9683  66.9737 16.29954320 97039
MIRATA                  
1 43015U 17073C   19103.85303377  .00002454  00000-0  19609-3 0  9994
2 43015  97.7186  27.6326 0256415  12.6708 348.0788 14.78840182 75560
MAKERSAT 0              
1 43016U 17073D   19103.72165697  .00001788  00000-0  14401-3 0  9996
2 43016  97.7222  27.6996 0258411  13.3503 347.4377 14.78634137 75540
ASTERIA                 
1 43020U 98067NH  19103.95243067  .00027222  00000-0  24530-3 0  9991
2 43020  51.6420 294.8876 0002243 232.3778 127.7015 15.67969890 79533
DELLINGR (RBLE)         
1 43021U 98067NJ  19103.96686953  .00011457  00000-0  13438-3 0  9996
2 43021  51.6386 303.8925 0002402 202.4834 157.6055 15.62014280 79411
AEROCUBE 7B (OCSD B)    
1 43042U 17071F   19103.94017913  .00004321  00000-0  11372-3 0  9994
2 43042  51.6393  14.2818 0003773 276.4058  83.6497 15.40734993 75945
AEROCUBE 7C (OCSD C)    
1 43043U 17071G   19103.94020418  .00004268  00000-0  11231-3 0  9993
2 43043  51.6394  14.2951 0004130 281.2201  78.8320 15.40773674 75914
CHEFSAT                 
1 43044U 17071H   19104.16627862  .00007190  00000-0  16909-3 0  9999
2 43044  51.6395   9.1489 0003795 280.0613  79.9945 15.43089884 76007
ASGARDIA 1              
1 43049U 17071N   19104.15701694  .00004290  00000-0  11237-3 0  9996
2 43049  51.6403  12.7654 0001752 309.7183  50.3648 15.40899775 75948
ISARA                   
1 43050U 17071P   19103.90225927  .00007134  00000-0  17038-3 0  9995
2 43050  51.6392  11.1016 0001421 304.7186  55.3666 15.42634566 75956
PROPCUBE 2 (FAUNA)      
1 43052U 17071R   19103.91457794  .00004249  00000-0  11049-3 0  9997
2 43052  51.6399  13.4132 0001625 304.1647  55.9184 15.41147717 75914
CORVUS BC3              
1 43118U 18004H   19103.82906454  .00001133  00000-0  51544-4 0  9993
2 43118  97.4923 171.3865 0011986 118.9541 241.2899 15.22732004 69453
MICROMAS-2A             
1 43131U 18004W   19103.75619335  .00002778  00000-0  11800-3 0  9995
2 43131  97.4943 171.8589 0011067 121.0831 239.1494 15.23867517 69473
CICERO 7                
1 43143U 18004AJ  19103.91758495  .00002137  00000-0  91042-4 0  9993
2 43143  97.4931 172.2299 0009016 127.5867 232.6190 15.24046035 69518
GOMX-4B                 
1 43196U 18015E   19103.90999956  .00000627  00000-0  28827-4 0  9994
2 43196  97.3810 232.4273 0018683 174.2880 185.8559 15.23871871 66323
GOMX-4A                 
1 43197U 18015F   19104.11396128  .00000713  00000-0  32296-4 0  9992
2 43197  97.3805 232.6471 0019399 173.6965 303.4121 15.23963111 66368
1KUNS-PF                
1 43466U 98067NP  19103.82566460  .00025838  00000-0  27536-3 0  9996
2 43466  51.6380 308.1853 0001210 190.8023 169.2946 15.63791535 52608
